UNKNOWN                 
1 87426U          22218.06906427  .00000908  00000+0  50239-3 0  9994
2 87426  65.7891   8.0593 0083900 218.6422 257.5725 14.14507034448575
UNKNOWN                 
1 87433U          22218.63966433  .00000778  00000+0  15904-2 0  9992
2 87433 100.2094 357.3083 0041794 320.2673  39.5393 13.36482038268848
UNKNOWN                 
1 87448U 70025    22218.11373567  .00000495  00000+0  47795-3 0  9995
2 87448 100.4471 266.5002 0069003 118.6962 242.1148 13.84785608439426
UNKNOWN                 
1 87456U 76126    22216.90277554  .00000876  00000+0  16960-3 0  9999
2 87456  65.7909  33.7365 0623110 266.7474  86.2172 13.88134692439944
UNKNOWN                 
1 87468U 93036    22211.89785322  .00003079  00000+0  34488-3 0  9994
2 87468  74.0152 175.3447 0065107 250.3566 109.0579 14.85814627296959
UNKNOWN                 
1 87491U 99025    22216.98126001  .00002925  00000+0  67045-3 0  9996
2 87491  98.6264 301.1396 0064981 324.1882  35.4965 14.55100200403642
UNKNOWN                 
1 87501U 93036    22216.67911420  .00006476  00000+0  17342-2 0  9996
2 87501  74.0328 357.4124 0025427  26.6563 333.5897 14.48228346291126
UNKNOWN                 
1 87517U 76126    22215.99168266  .00001261  00000+0  42510-3 0  9993
2 87517  65.8283 302.9204 0726000 173.2297   0.8391 13.46732067426909
UNKNOWN                 
1 87541U 70025    22218.53880881  .00000114  00000+0  30958-3 0  9998
2 87541  99.8548 109.3126 0060195 337.2492 142.5642 13.34951859962732
UNKNOWN                 
1 87553U 76126    22218.52177373  .00000717  00000+0  27874-3 0  9995
2 87553  65.6739  50.3513 0729178  49.0077 317.1736 13.42662647426285
UNKNOWN                 
1 87557U 73086    22218.42297264  .00002178  00000+0  59177-2 0  9995
2 87557 101.7609 269.7115 0082999 168.8082 191.4894 13.14379309403439
UNKNOWN                 
1 87561U 76077    22218.15529440 -.00000140  00000+0 -75303-3 0  9996
2 87561 102.1629 286.1400 0174568   9.9226  17.6338 12.32133229889045
UNKNOWN                 
1 87565U 99025    22218.35590593  .00000558  00000+0  35595-3 0  9997
2 87565  99.9177  86.1020 0180542 232.9386 125.5149 14.00671584444741
UNKNOWN                 
1 87569U 99025    22218.61329826 -.00000028  00000+0  97990-4 0  9990
2 87569 101.8379 340.2446 0056152 142.3076 231.8562 12.68480155403252
UNKNOWN                 
1 87587U 93036    22216.69838304  .00000056  00000+0  26826-4 0  9998
2 87587  74.0230 207.8371 0020926 184.8872 175.2082 14.38951953457399
UNKNOWN                 
1 87590U 99025    22212.93254809  .00000314  00000+0  21041-3 0  9991
2 87590  98.9367 254.6428 0028363 144.8420 338.6833 14.07850295982070
UNKNOWN                 
1 87616U 76067    22218.50265476  .00000234  00000+0  97393-3 0  9996
2 87616  66.0387  32.0359 0643855 299.2452  88.5027 12.45017117383728
UNKNOWN                 
1 87624U 99025    22218.57523716  .00000887  00000+0  20214-3 0  9997
2 87624  98.7552  80.3227 0129765  55.4782 305.8584 14.53539731401636
UNKNOWN                 
1 87642U          22215.48959961  .00011161  00000+0  52114-3 0  9995
2 87642  62.2228 294.6589 0113673 317.5148  41.7193 15.14660077467250
UNKNOWN                 
1 87650U          22218.00214958  .00003523  00000+0  13322-2 0  9995
2 87650 100.2650 125.7274 0054930 165.6446 194.6307 14.31220932 11170
UNKNOWN                 
1 87656U          22217.65152608  .00007417  00000+0  15097-2 0  9991
2 87656  99.1402  12.0128 0017440  81.8251 278.4924 14.61284074821648
UNKNOWN                 
1 87664U 75052    22206.44984865  .00000132  00000+0  46807-3 0  9993
2 87664  99.7173 187.0725 0212104 282.1038 237.3262 13.06271328379909
UNKNOWN                 
1 87672U 93016    22216.96007541  .00000507  00000+0  26110-3 0  9998
2 87672  70.8624 113.6088 0065104 331.4721  28.2845 14.19004515450089
UNKNOWN                 
1 87681U          22216.96037267  .00000318  00000+0  42022-3 0  9997
2 87681  66.7379 112.4075 0170170 251.9368 106.3096 13.67414024434031
UNKNOWN                 
1 87690U 76126    22218.49475551  .00001888  00000+0  31741-3 0  9990
2 87690  65.7963 240.5875 0680861 300.2096  53.3219 13.79311677437347
UNKNOWN                 
1 87706U          22218.60813753  .00000640  00000+0  16304-3 0  9992
2 87706  98.5598 345.2428 0135829  55.5566  10.2626 14.48801570400427
UNKNOWN                 
1 87725U 81053    22217.98163654  .00001751  00000+0  55789-3 0  9992
2 87725  82.8959 224.0573 0031492  18.2920 341.9396 14.39092368455482
UNKNOWN                 
1 87727U 92093    22218.58872112  .00019468  00000+0  25143-2 0  9997
2 87727  70.9800 167.1009 0007840 115.2150 244.9821 14.80933272462602
UNKNOWN                 
1 87730U          22218.26526840  .00000056  00000+0  42653-4 0  9997
2 87730  82.9424  59.8883 0030030 173.3352 186.8209 13.74209150417140
UNKNOWN                 
1 87737U 99025    22218.38606291 -.00000011  00000+0  33627-4 0  9994
2 87737  99.5561  89.7533 0134127 131.2427 230.0368 13.72040228435948
UNKNOWN                 
1 87764U 76126    22218.62301337  .00003943  00000+0  82538-3 0  9991
2 87764  65.6723 209.9869 0487279 325.3737 148.8994 14.06167802445431
UNKNOWN                 
1 87771U 75052    22217.88074310  .00000035  00000+0  19940-3 0  9997
2 87771 100.6854  13.0141 0119486 258.1907 100.5784 13.19078129373578
UNKNOWN                 
1 87782U 73086    22217.90937385  .00001006  00000+0  39115-2 0  9991
2 87782 102.3759 280.9636 0078029 171.9509 188.2853 12.91588209409354
UNKNOWN                 
1 87817U 68097    22218.22029705  .00037212  00000+0  12812-2 0  9993
2 87817  62.7601  34.1121 0154169  66.3937 295.3271 15.19196331502439
UNKNOWN                 
1 87843U 70025    22216.86450115  .00000706  00000+0  18236-2 0  9991
2 87843  99.6824  62.8917 0248471 344.2160  15.1308 13.10655889403246
UNKNOWN                 
1 87845U          22218.22338752  .00000808  00000+0  16393-2 0  9998
2 87845  98.8440  44.1001 0585855 183.0784 176.6643 12.84864157407734
UNKNOWN                 
1 87878U          22217.79202774  .00000744  00000+0  30737-3 0  9997
2 87878  99.2191 247.5548 0041163 226.4165 133.3596 14.29588546435719
UNKNOWN                 
1 87883U 99025    22216.52974401  .00000127  00000+0  65254-4 0  9999
2 87883  99.2118 114.9830 0296266 221.7404 136.0823 14.12417157399066
UNKNOWN                 
1 87884U 99025    22216.66064461  .00000193  00000+0  13277-3 0  9991
2 87884  98.6121 355.9457 0155651 279.1986  79.1605 14.04532590446170
UNKNOWN                 
1 87898U 99025    22216.60385054  .00002567  00000+0  91109-3 0  9991
2 87898  98.9042  85.7168 0127665 245.6903 113.0903 14.30898821452276
UNKNOWN                 
1 87934U          22213.01449625  .00000058  00000+0  46703-4 0  9998
2 87934  82.9378 128.3058 0029823 212.2594 161.4974 13.72828157435576
UNKNOWN                 
1 87942U          22217.17824282  .00005096  00000+0  50287-3 0  9992
2 87942  99.0852 195.9173 0137274  80.0128 343.1735 14.85689338463467
UNKNOWN                 
1 87972U 99025    22218.51663541  .00008346  00000+0  26813-2 0  9996
2 87972  98.8032 147.4437 0167006   5.4875 354.8088 14.31969218400435
UNKNOWN                 
1 87991U 77065    22216.99910755  .00000370  00000+0  62081-3 0  9996
2 87991  28.6266 344.7120 0928041 354.7461   4.3878 12.30082840371718
UNKNOWN                 
1 87998U 99025    22217.87224547  .00000194  00000+0  13767-3 0  9999
2 87998  98.6903 257.3507 0029048 121.2448 239.1573 14.08286467376318
UNKNOWN                 
1 89003U          22215.98386566  .00000068  00000+0  32937-4 0  9994
2 89003  74.0468 103.0779 0015131 105.1738 255.1089 14.34799413455520
UNKNOWN                 
1 89005U          22218.54101785  .00000587  00000+0  16751-3 0  9990
2 89005  97.9619 125.0090 0220257 160.5362 200.4404 14.35303173357912
UNKNOWN                 
1 89029U          22218.06240560  .00000733  00000+0  10499-3 0  9994
2 89029  98.2025  76.7321 0030264 353.3863   6.6944 14.79448754469245
UNKNOWN                 
1 89037U          22212.09726278  .00001710  00000+0  10081-2 0  9997
2 89037  98.4372 168.8382 0141455  59.5518 301.9538 14.04196257349151
UNKNOWN                 
1 89048U          22217.66714401  .00015950  00000+0  27570-2 0  9994
2 89048  99.0443 119.3482 0015814  73.7247 286.5693 14.68400131459743
UNKNOWN                 
1 89067U          22218.28529551  .00010749  00000+0  32580-3 0  9993
2 89067  80.9845 202.4917 0562755 110.6826 255.5618 14.48241915404510
UNKNOWN                 
1 89074U          22218.37826716  .00001810  00000+0  21267-2 0  9992
2 89074 100.2923 253.4702 0051343 230.7006 142.5753 13.69171433421310
UNKNOWN                 
1 89101U          22218.19091549 -.00000103  00000+0 -18003-3 0  9992
2 89101 100.3076 186.2389 0147449 323.8316  35.2888 13.03671448395266
UNKNOWN                 
1 89123U          22217.99995228  .00002278  00000+0  10773-2 0  9998
2 89123  99.0659 320.7241 0066787 151.4551 209.0307 14.19562635353147
UNKNOWN                 
1 89127U          22218.49126270  .00012947  00000+0  10224-2 0  9996
2 89127  74.0634 238.6743 0035330 245.9149 113.8341 15.00232856310113
UNKNOWN                 
1 89132U          22216.75486397  .00001141  00000+0  10872-2 0  9991
2 89132  63.4359  21.6934 3054649 320.3734  20.8959  8.73739059217175
UNKNOWN                 
1 89135U          22218.16615421  .00001239  00000+0  60442-3 0  9990
2 89135  71.0644  18.8775 0135191 313.8003  45.2000 14.15334679448420
UNKNOWN                 
1 89142U          22218.57347023  .00181036  00000+0  83469-1 0  9999
2 89142  64.7996  28.9023 3133660  82.5872 311.4902  8.74452276  4699
UNKNOWN                 
1 89146U          22217.25994929  .00000503  00000+0  13490-3 0  9998
2 89146  98.1862 150.2263 0116717 244.0900 114.8226 14.48552023450697
UNKNOWN                 
1 89161U          22218.34909335  .00001648  00000+0  22860-3 0  9995
2 89161  97.7318 243.4355 0129831 184.6205 175.3816 14.73581580365847
